[{"OBJECT_NAME":"IRIDIUM 33 DEB","OBJECT_ID":"1997-051LJ","EPOCH":"2026-03-02T18:50:03.801408","MEAN_MOTION":14.40729708,"ECCENTRICITY":0.00151958,"INCLINATION":86.344,"RA_OF_ASC_NODE":358.4112,"ARG_OF_PERICENTER":322.3065,"MEAN_ANOMALY":67.119,"EPHEMERIS_TYPE":0,"CLASSIFICATION_TYPE":"U","NORAD_CAT_ID":34765,"ELEMENT_SET_NO":999,"REV_AT_EPOCH":88766,"BSTAR":0.00052504212,"MEAN_MOTION_DOT":1.699e-5,"MEAN_MOTION_DDOT":0},{"OBJECT_NAME":"IRIDIUM 33 DEB","OBJECT_ID":"1997-051MH","EPOCH":"2026-03-03T01:57:52.275456","MEAN_MOTION":14.52988623,"ECCENTRICITY":0.0018823,"INCLINATION":86.3964,"RA_OF_ASC_NODE":16.3437,"ARG_OF_PERICENTER":180.0009,"MEAN_ANOMALY":303.1126,"EPHEMERIS_TYPE":0,"CLASSIFICATION_TYPE":"U","NORAD_CAT_ID":34833,"ELEMENT_SET_NO":999,"REV_AT_EPOCH":88881,"BSTAR":0.00096701,"MEAN_MOTION_DOT":4.017e-5,"MEAN_MOTION_DDOT":0},{"OBJECT_NAME":"IRIDIUM 33 DEB","OBJECT_ID":"1997-051MQ","EPOCH":"2026-03-02T21:11:54.478752","MEAN_MOTION":14.782838,"ECCENTRICITY":0.001473,"INCLINATION":86.306,"RA_OF_ASC_NODE":277.3223,"ARG_OF_PERICENTER":275.7378,"MEAN_ANOMALY":144.8425,"EPHEMERIS_TYPE":0,"CLASSIFICATION_TYPE":"U","NORAD_CAT_ID":34870,"ELEMENT_SET_NO":999,"REV_AT_EPOCH":90094,"BSTAR":0.0013451,"MEAN_MOTION_DOT":9.814e-5,"MEAN_MOTION_DDOT":0},{"OBJECT_NAME":"IRIDIUM 33 DEB","OBJECT_ID":"1997-051MY","EPOCH":"2026-03-02T22:46:20.256384","MEAN_MOTION":14.67216364,"ECCENTRICITY":0.0024343,"INCLINATION":86.3266,"RA_OF_ASC_NODE":290.6953,"ARG_OF_PERICENTER":307.1937,"MEAN_ANOMALY":116.6925,"EPHEMERIS_TYPE":0,"CLASSIFICATION_TYPE":"U","NORAD_CAT_ID":34896,"ELEMENT_SET_NO":999,"REV_AT_EPOCH":88795,"BSTAR":0.00082332,"MEAN_MOTION_DOT":4.677e-5,"MEAN_MOTION_DDOT":0},{"OBJECT_NAME":"IRIDIUM 33 DEB","OBJECT_ID":"1997-051NF","EPOCH":"2026-03-02T17:43:26.020704","MEAN_MOTION":14.58672166,"ECCENTRICITY":0.00805045,"INCLINATION":86.1332,"RA_OF_ASC_NODE":331.0601,"ARG_OF_PERICENTER":23.3655,"MEAN_ANOMALY":38.6669,"EPHEMERIS_TYPE":0,"CLASSIFICATION_TYPE":"U","NORAD_CAT_ID":34926,"ELEMENT_SET_NO":999,"REV_AT_EPOCH":87621,"BSTAR":0.0057144497,"MEAN_MOTION_DOT":0.0002796,"MEAN_MOTION_DDOT":0},{"OBJECT_NAME":"IRIDIUM 33 DEB","OBJECT_ID":"1997-051NR","EPOCH":"2026-03-02T08:19:21.453312","MEAN_MOTION":14.42422402,"ECCENTRICITY":0.00203467,"INCLINATION":86.3717,"RA_OF_ASC_NODE":22.8955,"ARG_OF_PERICENTER":328.6874,"MEAN_ANOMALY":182.6562,"EPHEMERIS_TYPE":0,"CLASSIFICATION_TYPE":"U","NORAD_CAT_ID":34985,"ELEMENT_SET_NO":999,"REV_AT_EPOCH":88322,"BSTAR":0.0009770996,"MEAN_MOTION_DOT":3.258e-5,"MEAN_MOTION_DDOT":0},{"OBJECT_NAME":"IRIDIUM 33 DEB","OBJECT_ID":"1997-051NX","EPOCH":"2026-03-02T00:30:58.852800","MEAN_MOTION":14.48066283,"ECCENTRICITY":0.00077271,"INCLINATION":86.3285,"RA_OF_ASC_NODE":334.3098,"ARG_OF_PERICENTER":169.1951,"MEAN_ANOMALY":190.942,"EPHEMERIS_TYPE":0,"CLASSIFICATION_TYPE":"U","NORAD_CAT_ID":35051,"ELEMENT_SET_NO":999,"REV_AT_EPOCH":88143,"BSTAR":0.00065269896,"MEAN_MOTION_DOT":2.446e-5,"MEAN_MOTION_DDOT":0},{"OBJECT_NAME":"IRIDIUM 33 DEB","OBJECT_ID":"1997-051NY","EPOCH":"2026-03-02T05:24:43.701984","MEAN_MOTION":14.38616914,"ECCENTRICITY":0.00113532,"INCLINATION":86.3361,"RA_OF_ASC_NODE":346.4096,"ARG_OF_PERICENTER":171.5022,"MEAN_ANOMALY":188.6371,"EPHEMERIS_TYPE":0,"CLASSIFICATION_TYPE":"U","NORAD_CAT_ID":35052,"ELEMENT_SET_NO":999,"REV_AT_EPOCH":88418,"BSTAR":0.00023089415,"MEAN_MOTION_DOT":7.27e-6,"MEAN_MOTION_DDOT":0},{"OBJECT_NAME":"IRIDIUM 33 DEB","OBJECT_ID":"1997-051PF","EPOCH":"2026-03-02T20:21:26.900064","MEAN_MOTION":15.02330738,"ECCENTRICITY":0.0029851,"INCLINATION":86.2064,"RA_OF_ASC_NODE":13.6867,"ARG_OF_PERICENTER":245.5617,"MEAN_ANOMALY":114.2502,"EPHEMERIS_TYPE":0,"CLASSIFICATION_TYPE":"U","NORAD_CAT_ID":35080,"ELEMENT_SET_NO":999,"REV_AT_EPOCH":70883,"BSTAR":0.009435726,"MEAN_MOTION_DOT":0.00127949,"MEAN_MOTION_DDOT":0},{"OBJECT_NAME":"IRIDIUM 33 DEB","OBJECT_ID":"1997-051PM","EPOCH":"2026-02-26T04:48:50.124096","MEAN_MOTION":14.45550738,"ECCENTRICITY":0.0012987,"INCLINATION":86.3869,"RA_OF_ASC_NODE":30.5259,"ARG_OF_PERICENTER":253.5255,"MEAN_ANOMALY":106.452,"EPHEMERIS_TYPE":0,"CLASSIFICATION_TYPE":"U","NORAD_CAT_ID":35297,"ELEMENT_SET_NO":999,"REV_AT_EPOCH":71516,"BSTAR":0.00063111,"MEAN_MOTION_DOT":2.247e-5,"MEAN_MOTION_DDOT":0},{"OBJECT_NAME":"IRIDIUM 33 DEB","OBJECT_ID":"1997-051PP","EPOCH":"2026-03-02T19:26:39.793920","MEAN_MOTION":14.41609681,"ECCENTRICITY":0.00535251,"INCLINATION":86.2921,"RA_OF_ASC_NODE":358.3115,"ARG_OF_PERICENTER":196.4433,"MEAN_ANOMALY":193.3005,"EPHEMERIS_TYPE":0,"CLASSIFICATION_TYPE":"U","NORAD_CAT_ID":35299,"ELEMENT_SET_NO":999,"REV_AT_EPOCH":87484,"BSTAR":0.0013966007,"MEAN_MOTION_DOT":4.641e-5,"MEAN_MOTION_DDOT":0},{"OBJECT_NAME":"IRIDIUM 33 DEB","OBJECT_ID":"1997-051QA","EPOCH":"2026-03-02T05:33:05.911488","MEAN_MOTION":14.50243832,"ECCENTRICITY":0.00125112,"INCLINATION":86.3616,"RA_OF_ASC_NODE":350.4456,"ARG_OF_PERICENTER":190.4902,"MEAN_ANOMALY":169.6043,"EPHEMERIS_TYPE":0,"CLASSIFICATION_TYPE":"U","NORAD_CAT_ID":35480,"ELEMENT_SET_NO":999,"REV_AT_EPOCH":88183,"BSTAR":0.00076407362,"MEAN_MOTION_DOT":2.995e-5,"MEAN_MOTION_DDOT":0},{"OBJECT_NAME":"IRIDIUM 33 DEB","OBJECT_ID":"1997-051QE","EPOCH":"2026-02-19T04:36:15.127200","MEAN_MOTION":15.05777687,"ECCENTRICITY":0.0011587,"INCLINATION":86.3587,"RA_OF_ASC_NODE":320.5585,"ARG_OF_PERICENTER":239.1626,"MEAN_ANOMALY":120.847,"EPHEMERIS_TYPE":0,"CLASSIFICATION_TYPE":"U","NORAD_CAT_ID":35484,"ELEMENT_SET_NO":999,"REV_AT_EPOCH":63043,"BSTAR":0.002574,"MEAN_MOTION_DOT":0.00037506,"MEAN_MOTION_DDOT":0},{"OBJECT_NAME":"IRIDIUM 33 DEB","OBJECT_ID":"1997-051QJ","EPOCH":"2026-03-02T23:30:48.304800","MEAN_MOTION":14.85163369,"ECCENTRICITY":0.0027382,"INCLINATION":86.3195,"RA_OF_ASC_NODE":263.8144,"ARG_OF_PERICENTER":113.1612,"MEAN_ANOMALY":247.2501,"EPHEMERIS_TYPE":0,"CLASSIFICATION_TYPE":"U","NORAD_CAT_ID":35488,"ELEMENT_SET_NO":999,"REV_AT_EPOCH":89456,"BSTAR":0.0013929,"MEAN_MOTION_DOT":0.00012039,"MEAN_MOTION_DDOT":0},{"OBJECT_NAME":"IRIDIUM 33 DEB","OBJECT_ID":"1997-051QN","EPOCH":"2026-03-03T00:05:22.265088","MEAN_MOTION":14.84547005,"ECCENTRICITY":0.0006782,"INCLINATION":86.3536,"RA_OF_ASC_NODE":309.0606,"ARG_OF_PERICENTER":263.3407,"MEAN_ANOMALY":96.7045,"EPHEMERIS_TYPE":0,"CLASSIFICATION_TYPE":"U","NORAD_CAT_ID":35616,"ELEMENT_SET_NO":999,"REV_AT_EPOCH":88764,"BSTAR":0.0016284,"MEAN_MOTION_DOT":0.00013776,"MEAN_MOTION_DDOT":0},{"OBJECT_NAME":"IRIDIUM 33 DEB","OBJECT_ID":"1997-051QQ","EPOCH":"2026-03-01T23:41:01.438080","MEAN_MOTION":14.52702392,"ECCENTRICITY":0.0030481,"INCLINATION":86.3424,"RA_OF_ASC_NODE":318.8529,"ARG_OF_PERICENTER":109.2412,"MEAN_ANOMALY":251.2096,"EPHEMERIS_TYPE":0,"CLASSIFICATION_TYPE":"U","NORAD_CAT_ID":35618,"ELEMENT_SET_NO":999,"REV_AT_EPOCH":66544,"BSTAR":0.00042564,"MEAN_MOTION_DOT":1.776e-5,"MEAN_MOTION_DDOT":0}]
